     2              NAVIGATION DATA                         RINEX VERSION / TYPE
CCRINEXN V1.6.0 UX  CDDIS               11-DEC-20 18:31     PGM / RUN BY / DATE 
IGS BROADCAST EPHEMERIS FILE                                COMMENT             
    0.9313D-08 -0.1490D-07 -0.5960D-07  0.1192D-06          ION ALPHA           
    0.9626D+05 -0.1475D+06 -0.1311D+06  0.9175D+06          ION BETA            
   -0.186264514923D-08-0.355271367880D-14   589824     2135 DELTA-UTC: A0,A1,T,W
    18                                                      LEAP SECONDS        
                                                            END OF HEADER       
16 20 12 10  4  0  0.0-0.248200725764D-03-0.545696821064D-11 0.000000000000D+00
    0.190000000000D+02 0.307812500000D+02 0.460840624433D-08-0.289290233377D+01
    0.140629708767D-05 0.118492299225D-01 0.388920307159D-05 0.515361194992D+04
    0.360000000000D+06-0.651925802231D-07-0.244624689952D+01-0.197440385819D-06
    0.976056799312D+00 0.314968750000D+03 0.632189642219D+00-0.818462663684D-08
    0.407159816984D-10 0.100000000000D+01 0.213500000000D+04 0.000000000000D+00
    0.200000000000D+01 0.000000000000D+00-0.107102096081D-07 0.190000000000D+02
    0.352818000000D+06 0.400000000000D+01 0.000000000000D+00 0.000000000000D+00
17 20 12 10  4  0  0.0 0.365021638572D-03 0.500222085975D-11 0.000000000000D+00
    0.940000000000D+02-0.701562500000D+02 0.397730852801D-08 0.235820147775D+01
   -0.364519655704D-05 0.136232811492D-01 0.771880149841D-05 0.515351496315D+04
    0.360000000000D+06 0.126659870148D-06-0.142945745185D+01-0.126659870148D-06
    0.982964483433D+00 0.238156250000D+03-0.160457397148D+01-0.770317801114D-08
   -0.379301513716D-09 0.100000000000D+01 0.213500000000D+04 0.000000000000D+00
    0.200000000000D+01 0.000000000000D+00-0.111758708954D-07 0.940000000000D+02
    0.352818000000D+06 0.400000000000D+01 0.000000000000D+00 0.000000000000D+00
18 20 12 10  4  0  0.0 0.330920796841D-03 0.397903932026D-11 0.000000000000D+00
    0.154000000000D+03 0.176250000000D+02 0.429946480425D-08 0.478039810791D+00
    0.733882188797D-06 0.118471845053D-02 0.992417335510D-05 0.515370462227D+04
    0.360000000000D+06 0.260770320892D-07-0.418321202403D+00 0.260770320892D-07
    0.966432066700D+00 0.188843750000D+03 0.298418487434D+01-0.801783397497D-08
    0.273582824394D-09 0.100000000000D+01 0.213500000000D+04 0.000000000000D+00
    0.200000000000D+01 0.000000000000D+00-0.838190317154D-08 0.666000000000D+03
    0.352818000000D+06 0.400000000000D+01 0.000000000000D+00 0.000000000000D+00
19 20 12 10  4  0  0.0-0.673304311931D-04 0.500222085975D-11 0.000000000000D+00
    0.360000000000D+02-0.554375000000D+02 0.404302555110D-08-0.132874883271D+01
   -0.275857746601D-05 0.900116469711D-02 0.838376581669D-05 0.515361186028D+04
    0.360000000000D+06-0.197440385819D-06-0.138408059011D+01 0.149011611938D-06
    0.981347995529D+00 0.231437500000D+03 0.175651828860D+01-0.799497587998D-08
   -0.288226291496D-09 0.100000000000D+01 0.213500000000D+04 0.000000000000D+00
    0.200000000000D+01 0.000000000000D+00-0.153668224812D-07 0.360000000000D+02
    0.355698000000D+06 0.400000000000D+01 0.000000000000D+00 0.000000000000D+00
20 20 12 10  4  0  0.0 0.525673385709D-03-0.113686837722D-12 0.000000000000D+00
    0.600000000000D+02-0.209375000000D+01 0.544379818462D-08-0.259055923885D+00
   -0.230967998505D-06 0.586899509653D-02 0.511482357979D-05 0.515365660477D+04
    0.360000000000D+06 0.109896063805D-06 0.465706540947D+00-0.130385160446D-06
    0.936310530783D+00 0.271250000000D+03 0.278531897981D+01-0.869929093181D-08
    0.127148153374D-09 0.100000000000D+01 0.213500000000D+04 0.000000000000D+00
    0.200000000000D+01 0.000000000000D+00-0.838190317154D-08 0.600000000000D+02
    0.352818000000D+06 0.400000000000D+01 0.000000000000D+00 0.000000000000D+00
21 20 12 10  4  0  0.0 0.761887058616D-04 0.352429196937D-11 0.000000000000D+00
    0.940000000000D+02-0.625000000000D+00 0.442411285349D-08 0.275398722589D+01
    0.165775418282D-06 0.240125824930D-01 0.105742365122D-04 0.515375675201D+04
    0.360000000000D+06 0.510364770889D-06-0.511735178041D+00 0.856816768646D-07
    0.955650847608D+00 0.163156250000D+03-0.123270540957D+01-0.775282293619D-08
    0.148577617426D-09 0.100000000000D+01 0.213500000000D+04 0.000000000000D+00
    0.280000000000D+01 0.000000000000D+00-0.102445483208D-07 0.940000000000D+02
    0.352818000000D+06 0.400000000000D+01 0.000000000000D+00 0.000000000000D+00
22 20 12 10  4  0  0.0-0.717630609870D-03 0.591171556152D-11 0.000000000000D+00
    0.240000000000D+02 0.340625000000D+01 0.554844540074D-08 0.146742845174D+01
   -0.316649675369D-07 0.676356139593D-02 0.479258596897D-05 0.515365429688D+04
    0.360000000000D+06 0.130385160446D-06 0.512498239037D+00-0.558793544769D-07
    0.932966803298D+00 0.268875000000D+03-0.106503264138D+01-0.866178936972D-08
    0.171078554680D-09 0.100000000000D+01 0.213500000000D+04 0.000000000000D+00
    0.200000000000D+01 0.000000000000D+00-0.181607902050D-07 0.240000000000D+02
    0.352818000000D+06 0.400000000000D+01 0.000000000000D+00 0.000000000000D+00
23 20 12 10  4  0  0.0 0.108759384602D-03 0.318323145621D-11 0.000000000000D+00
    0.175000000000D+03-0.128437500000D+02 0.482841540860D-08 0.206923449821D+00
   -0.730156898499D-06 0.110349303577D-02 0.537559390068D-05 0.515362611580D+04
    0.360000000000D+06 0.223517417908D-07 0.580447898945D+00-0.782310962677D-07
    0.962475689604D+00 0.280750000000D+03 0.220459013330D+01-0.831856078716D-08
    0.475019786481D-10 0.100000000000D+01 0.213500000000D+04 0.000000000000D+00
    0.200000000000D+01 0.000000000000D+00-0.838190317154D-08 0.943000000000D+03
    0.352818000000D+06 0.400000000000D+01 0.000000000000D+00 0.000000000000D+00
24 20 12 10  4  0  0.0 0.536208972335D-05-0.454747350886D-12 0.000000000000D+00
    0.200000000000D+02 0.767187500000D+02 0.500949437983D-08 0.619254482526D+00
    0.397861003876D-05 0.106712520355D-01 0.103823840618D-04 0.515362912178D+04
    0.360000000000D+06-0.130385160446D-06 0.263437741989D+01 0.216066837311D-06
    0.935805082346D+00 0.168375000000D+03 0.706719572015D+00-0.836320550394D-08
    0.817891211309D-10 0.100000000000D+01 0.213500000000D+04 0.000000000000D+00
    0.200000000000D+01 0.000000000000D+00 0.279396772385D-08 0.200000000000D+02
    0.357289000000D+06 0.400000000000D+01 0.000000000000D+00 0.000000000000D+00
25 20 12 10  4  0  0.0 0.370587222278D-04 0.704858393874D-11 0.000000000000D+00
    0.880000000000D+02 0.334062500000D+02 0.492913388964D-08-0.134545366019D+01
    0.187754631042D-05 0.944567867555D-02 0.351108610630D-05 0.515369244957D+04
    0.360000000000D+06 0.167638063431D-06-0.253644053165D+01 0.894069671631D-07
    0.963288249896D+00 0.312187500000D+03 0.927595112940D+00-0.846213819631D-08
    0.710743891050D-10 0.100000000000D+01 0.213500000000D+04 0.000000000000D+00
    0.200000000000D+01 0.000000000000D+00 0.558793544769D-08 0.880000000000D+02
    0.352818000000D+06 0.400000000000D+01 0.000000000000D+00 0.000000000000D+00
26 20 12 10  4  0  0.0 0.120326876640D-04 0.591171556152D-11 0.000000000000D+00
    0.870000000000D+02 0.439375000000D+02 0.535486590880D-08-0.191189427798D+01
    0.200979411602D-05 0.542641722132D-02 0.360608100891D-05 0.515371530914D+04
    0.360000000000D+06-0.372529029846D-08-0.257538929478D+01-0.856816768646D-07
    0.944300304687D+00 0.302125000000D+03 0.220041042713D+00-0.868000441417D-08
    0.170364239211D-09 0.100000000000D+01 0.213500000000D+04 0.000000000000D+00
    0.200000000000D+01 0.000000000000D+00 0.698491930962D-08 0.870000000000D+02
    0.352818000000D+06 0.400000000000D+01 0.000000000000D+00 0.000000000000D+00
27 20 12 10  4  0  0.0-0.316095538437D-04-0.807176547823D-11 0.000000000000D+00
    0.540000000000D+02-0.723125000000D+02 0.420017495415D-08 0.248609761601D+01
   -0.373832881451D-05 0.864708295558D-02 0.838935375214D-05 0.515367828941D+04
    0.360000000000D+06-0.117346644402D-06-0.148913178503D+01-0.141561031342D-06
    0.976905344463D+00 0.226343750000D+03 0.565961032286D+00-0.793747348477D-08
   -0.346085844436D-09 0.100000000000D+01 0.213500000000D+04 0.000000000000D+00
    0.200000000000D+01 0.000000000000D+00 0.186264514923D-08 0.540000000000D+02
    0.352818000000D+06 0.400000000000D+01 0.000000000000D+00 0.000000000000D+00
28 20 12 10  4  0  0.0 0.645091757178D-03-0.500222085975D-11 0.000000000000D+00
    0.630000000000D+02 0.344687500000D+02 0.450268755501D-08-0.306664218166D+01
    0.174529850483D-05 0.182894843165D-01 0.315345823765D-05 0.515366832924D+04
    0.360000000000D+06 0.320374965668D-06-0.244263055579D+01 0.199303030968D-06
    0.975113675044D+00 0.322750000000D+03-0.136716203761D+01-0.803640617715D-08
    0.610739725475D-10 0.100000000000D+01 0.213500000000D+04 0.000000000000D+00
    0.400000000000D+01 0.000000000000D+00-0.111758708954D-07 0.630000000000D+02
    0.352818000000D+06 0.400000000000D+01 0.000000000000D+00 0.000000000000D+00
29 20 12 10  4  0  0.0-0.253026839346D-03-0.750333128963D-11 0.000000000000D+00
    0.870000000000D+02-0.611562500000D+02 0.405231165219D-08 0.250212764034D+01
   -0.305846333504D-05 0.146055093501D-02 0.893510878086D-05 0.515371599388D+04
    0.360000000000D+06 0.115483999252D-06-0.141733105033D+01 0.149011611938D-07
    0.984731988371D+00 0.219562500000D+03 0.225074153116D+01-0.792283001767D-08
   -0.331799535068D-09 0.100000000000D+01 0.213500000000D+04 0.000000000000D+00
    0.200000000000D+01 0.000000000000D+00-0.102445483208D-07 0.870000000000D+02
    0.352818000000D+06 0.400000000000D+01 0.000000000000D+00 0.000000000000D+00
